{"type": "FeatureCollection", "features": [ {"type": "Feature", "properties": {"norad_id": 36011, "name": "IRIDIUM 33 DEB", "group": "iridium-33-debris", "lat": -31.86598114106855, "lon": -140.36307473249698, "alt_km": 748.8135795664384, "timestamp": "2025-12-08T05:48:09.419257+00:00", "meta": {"OBJECT_NAME": "IRIDIUM 33 DEB", "OBJECT_ID": "1997-051US", "EPOCH": "2025-12-07T10:45:06.253920", "MEAN_MOTION": 14.41304966, "ECCENTRICITY": 0.00172144, "INCLINATION": 86.3417, "RA_OF_ASC_NODE": 37.6984, "ARG_OF_PERICENTER": 234.8253, "MEAN_ANOMALY": 180.968, "EPHEMERIS_TYPE": 0, "CLASSIFICATION_TYPE": "U", "NORAD_CAT_ID": 36011, "ELEMENT_SET_NO": 999, "REV_AT_EPOCH": 64464, "BSTAR": 0.00085167404, "MEAN_MOTION_DOT": 2.777e-05, "MEAN_MOTION_DDOT": 0}, "tle": {"line1": "1 36011U 97051US  25341.44798905  .00002777  00000+0  85167-3 0  9996", "line2": "2 36011  86.3417  37.6984 0017214 234.8253 180.9680 14.41304966644645"}}, "geometry": {"type": "Point", "coordinates": [-140.36307473249698, -31.86598114106855]}}, {"type": "Feature", "properties": {"norad_id": 36012, "name": "IRIDIUM 33 DEB", "group": "iridium-33-debris", "lat": 42.03594435607382, "lon": 126.13560547956125, "alt_km": 942.4866032101272, "timestamp": "2025-12-08T05:48:09.419268+00:00", "meta": {"OBJECT_NAME": "IRIDIUM 33 DEB", "OBJECT_ID": "1997-051UT", "EPOCH": "2025-12-06T04:02:53.038752", "MEAN_MOTION": 14.18666574, "ECCENTRICITY": 0.02131994, "INCLINATION": 86.4443, "RA_OF_ASC_NODE": 310.1835, "ARG_OF_PERICENTER": 284.453, "MEAN_ANOMALY": 73.3086, "EPHEMERIS_TYPE": 0, "CLASSIFICATION_TYPE": "U", "NORAD_CAT_ID": 36012, "ELEMENT_SET_NO": 999, "REV_AT_EPOCH": 65391, "BSTAR": 0.011047902, "MEAN_MOTION_DOT": 0.0002881, "MEAN_MOTION_DDOT": 0}, "tle": {"line1": "1 36012U 97051UT  25340.16866943  .00028810  00000+0  11048-1 0  9994", "line2": "2 36012  86.4443 310.1835 0213199 284.4530  73.3086 14.18666574653914"}}, "geometry": {"type": "Point", "coordinates": [126.13560547956125, 42.03594435607382]}}, {"type": "Feature", "properties": {"norad_id": 36028, "name": "IRIDIUM 33 DEB", "group": "iridium-33-debris", "lat": 69.09637766040912, "lon": -41.4913122953137, "alt_km": 560.5662338075344, "timestamp": "2025-12-08T05:48:09.419278+00:00", "meta": {"OBJECT_NAME": "IRIDIUM 33 DEB", "OBJECT_ID": "1997-051VK", "EPOCH": "2025-12-07T03:47:25.083744", "MEAN_MOTION": 14.94882554, "ECCENTRICITY": 0.0022029, "INCLINATION": 86.3219, "RA_OF_ASC_NODE": 309.3218, "ARG_OF_PERICENTER": 70.0676, "MEAN_ANOMALY": 290.2923, "EPHEMERIS_TYPE": 0, "CLASSIFICATION_TYPE": "U", "NORAD_CAT_ID": 36028, "ELEMENT_SET_NO": 999, "REV_AT_EPOCH": 87041, "BSTAR": 0.0035058592, "MEAN_MOTION_DOT": 0.00038575, "MEAN_MOTION_DDOT": 0}, "tle": {"line1": "1 36028U 97051VK  25341.15792921  .00038575  00000+0  35059-2 0  9993", "line2": "2 36028  86.3219 309.3218 0022029  70.0676 290.2923 14.94882554870414"}}, "geometry": {"type": "Point", "coordinates": [-41.4913122953137, 69.09637766040912]}}, {"type": "Feature", "properties": {"norad_id": 36080, "name": "IRIDIUM 33 DEB", "group": "iridium-33-debris", "lat": -7.783671012974376, "lon": 9.442346678176712, "alt_km": 753.4117692744612, "timestamp": "2025-12-08T05:48:09.419288+00:00", "meta": {"OBJECT_NAME": "IRIDIUM 33 DEB", "OBJECT_ID": "1997-051VM", "EPOCH": "2025-12-07T08:15:24.109920", "MEAN_MOTION": 14.46571942, "ECCENTRICITY": 0.00176312, "INCLINATION": 86.3198, "RA_OF_ASC_NODE": 10.3374, "ARG_OF_PERICENTER": 174.0737, "MEAN_ANOMALY": 186.0678, "EPHEMERIS_TYPE": 0, "CLASSIFICATION_TYPE": "U", "NORAD_CAT_ID": 36080, "ELEMENT_SET_NO": 999, "REV_AT_EPOCH": 47336, "BSTAR": 0.0010977788, "MEAN_MOTION_DOT": 3.982e-05, "MEAN_MOTION_DDOT": 0}, "tle": {"line1": "1 36080U 97051VM  25341.34402905  .00003982  00000+0  10978-2 0  9999", "line2": "2 36080  86.3198  10.3374 0017631 174.0737 186.0678 14.46571942473361"}}, "geometry": {"type": "Point", "coordinates": [9.442346678176712, -7.783671012974376]}}, {"type": "Feature", "properties": {"norad_id": 36083, "name": "IRIDIUM 33 DEB", "group": "iridium-33-debris", "lat": 40.73778369479551, "lon": -147.06667699076172, "alt_km": 747.8333443841902, "timestamp": "2025-12-08T05:48:09.419298+00:00", "meta": {"OBJECT_NAME": "IRIDIUM 33 DEB", "OBJECT_ID": "1997-051VQ", "EPOCH": "2025-12-06T21:32:26.892672", "MEAN_MOTION": 14.43175138, "ECCENTRICITY": 0.00247889, "INCLINATION": 86.3442, "RA_OF_ASC_NODE": 36.6683, "ARG_OF_PERICENTER": 243.3344, "MEAN_ANOMALY": 116.5319, "EPHEMERIS_TYPE": 0, "CLASSIFICATION_TYPE": "U", "NORAD_CAT_ID": 36083, "ELEMENT_SET_NO": 999, "REV_AT_EPOCH": 85365, "BSTAR": 0.00098432537, "MEAN_MOTION_DOT": 3.337e-05, "MEAN_MOTION_DDOT": 0}, "tle": {"line1": "1 36083U 97051VQ  25340.89753348  .00003337  00000+0  98433-3 0  9998", "line2": "2 36083  86.3442  36.6683 0024788 243.3344 116.5319 14.43175138853653"}}, "geometry": {"type": "Point", "coordinates": [-147.06667699076172, 40.73778369479551]}}, {"type": "Feature", "properties": {"norad_id": 36390, "name": "IRIDIUM 33 DEB", "group": "iridium-33-debris", "lat": -6.468702119191198, "lon": 121.87505590403678, "alt_km": 634.0600541085105, "timestamp": "2025-12-08T05:48:09.419308+00:00", "meta": {"OBJECT_NAME": "IRIDIUM 33 DEB", "OBJECT_ID": "1997-051VU", "EPOCH": "2025-11-30T04:37:26.668128", "MEAN_MOTION": 14.73329322, "ECCENTRICITY": 0.00285998, "INCLINATION": 86.289, "RA_OF_ASC_NODE": 305.1428, "ARG_OF_PERICENTER": 206.0853, "MEAN_ANOMALY": 153.8925, "EPHEMERIS_TYPE": 0, "CLASSIFICATION_TYPE": "U", "NORAD_CAT_ID": 36390, "ELEMENT_SET_NO": 999, "REV_AT_EPOCH": 66077, "BSTAR": 0.001268982, "MEAN_MOTION_DOT": 8.29e-05, "MEAN_MOTION_DDOT": 0}, "tle": {"line1": "1 36390U 97051VU  25334.19266977  .00008290  00000+0  12690-2 0  9995", "line2": "2 36390  86.2890 305.1428 0028599 206.0853 153.8925 14.73329322660771"}}, "geometry": {"type": "Point", "coordinates": [121.87505590403678, -6.468702119191198]}}, {"type": "Feature", "properties": {"norad_id": 36483, "name": "IRIDIUM 33 DEB", "group": "iridium-33-debris", "lat": -80.2970693033144, "lon": -103.85305536849037, "alt_km": 751.0838711794368, "timestamp": "2025-12-08T05:48:09.419318+00:00", "meta": {"OBJECT_NAME": "IRIDIUM 33 DEB", "OBJECT_ID": "1997-051VZ", "EPOCH": "2025-12-06T22:42:02.671200", "MEAN_MOTION": 14.457778, "ECCENTRICITY": 0.00108094, "INCLINATION": 86.3798, "RA_OF_ASC_NODE": 54.9695, "ARG_OF_PERICENTER": 142.1812, "MEAN_ANOMALY": 218.0152, "EPHEMERIS_TYPE": 0, "CLASSIFICATION_TYPE": "U", "NORAD_CAT_ID": 36483, "ELEMENT_SET_NO": 999, "REV_AT_EPOCH": 65062, "BSTAR": 0.00091800132, "MEAN_MOTION_DOT": 3.275e-05, "MEAN_MOTION_DDOT": 0}, "tle": {"line1": "1 36483U 97051VZ  25340.94586425  .00003275  00000+0  91800-3 0  9990", "line2": "2 36483  86.3798  54.9695 0010809 142.1812 218.0152 14.45777800650623"}}, "geometry": {"type": "Point", "coordinates": [-103.85305536849037, -80.2970693033144]}}, {"type": "Feature", "properties": {"norad_id": 36490, "name": "IRIDIUM 33 DEB", "group": "iridium-33-debris", "lat": 27.374182635914032, "lon": 14.37786533483767, "alt_km": 639.1452965792423, "timestamp": "2025-12-08T05:48:09.419328+00:00", "meta": {"OBJECT_NAME": "IRIDIUM 33 DEB", "OBJECT_ID": "1997-051WG", "EPOCH": "2025-12-07T08:31:37.795584", "MEAN_MOTION": 14.76021819, "ECCENTRICITY": 0.00055255, "INCLINATION": 86.3653, "RA_OF_ASC_NODE": 12.8914, "ARG_OF_PERICENTER": 95.0103, "MEAN_ANOMALY": 265.1747, "EPHEMERIS_TYPE": 0, "CLASSIFICATION_TYPE": "U", "NORAD_CAT_ID": 36490, "ELEMENT_SET_NO": 999, "REV_AT_EPOCH": 86405, "BSTAR": 0.002403266, "MEAN_MOTION_DOT": 0.00016601, "MEAN_MOTION_DDOT": 0}, "tle": {"line1": "1 36490U 97051WG  25341.35529856  .00016601  00000+0  24033-2 0  9999", "line2": "2 36490  86.3653  12.8914 0005525  95.0103 265.1747 14.76021819864059"}}, "geometry": {"type": "Point", "coordinates": [14.37786533483767, 27.374182635914032]}}, {"type": "Feature", "properties": {"norad_id": 36493, "name": "IRIDIUM 33 DEB", "group": "iridium-33-debris", "lat": 52.500069336715455, "lon": -171.08252812072587, "alt_km": 674.1581654438423, "timestamp": "2025-12-08T05:48:09.419339+00:00", "meta": {"OBJECT_NAME": "IRIDIUM 33 DEB", "OBJECT_ID": "1997-051WK", "EPOCH": "2025-12-04T20:54:22.682304", "MEAN_MOTION": 14.65078368, "ECCENTRICITY": 0.0011123, "INCLINATION": 86.3577, "RA_OF_ASC_NODE": 15.1759, "ARG_OF_PERICENTER": 30.554, "MEAN_ANOMALY": 329.6318, "EPHEMERIS_TYPE": 0, "CLASSIFICATION_TYPE": "U", "NORAD_CAT_ID": 36493, "ELEMENT_SET_NO": 999, "REV_AT_EPOCH": 74403, "BSTAR": 0.0027859, "MEAN_MOTION_DOT": 0.00015002, "MEAN_MOTION_DDOT": 0}, "tle": {"line1": "1 36493U 97051WK  25338.87109586  .00015002  00000+0  27859-2 0  9992", "line2": "2 36493  86.3577  15.1759 0011123  30.5540 329.6318 14.65078368744034"}}, "geometry": {"type": "Point", "coordinates": [-171.08252812072587, 52.500069336715455]}}, {"type": "Feature", "properties": {"norad_id": 37548, "name": "IRIDIUM 33 DEB", "group": "iridium-33-debris", "lat": 1.2483467977737044, "lon": -134.75345281310942, "alt_km": 709.0701487944143, "timestamp": "2025-12-08T05:48:09.419351+00:00", "meta": {"OBJECT_NAME": "IRIDIUM 33 DEB", "OBJECT_ID": "1997-051XH", "EPOCH": "2025-11-29T22:23:36.250944", "MEAN_MOTION": 14.5113469, "ECCENTRICITY": 0.00243457, "INCLINATION": 86.3524, "RA_OF_ASC_NODE": 48.9393, "ARG_OF_PERICENTER": 232.6782, "MEAN_ANOMALY": 127.2204, "EPHEMERIS_TYPE": 0, "CLASSIFICATION_TYPE": "U", "NORAD_CAT_ID": 37548, "ELEMENT_SET_NO": 999, "REV_AT_EPOCH": 65346, "BSTAR": 0.0012745087, "MEAN_MOTION_DOT": 5.093e-05, "MEAN_MOTION_DDOT": 0}, "tle": {"line1": "1 37548U 97051XH  25333.93305846  .00005093  00000+0  12745-2 0  9990", "line2": "2 37548  86.3524  48.9393 0024345 232.6782 127.2204 14.51134690653467"}}, "geometry": {"type": "Point", "coordinates": [-134.75345281310942, 1.2483467977737044]}}]}